{
  "type": "FeatureCollection",
  "features": [
    {
      "type": "Feature",
      "properties": {
        "norad_id": 31026,
        "name": "FENGYUN 1C DEB",
        "group": "fengyun-1c-debris",
        "lat": -11.8465032918025,
        "lon": -75.79585120077621,
        "alt_km": 1051.3488673853662,
        "timestamp": "2025-12-12T18:57:44.409963+00:00",
        "meta_object_name": "FENGYUN 1C DEB",
        "meta_object_id": "1999-025BDU",
        "meta_epoch": "2025-12-09T02:34:09.728256",
        "meta_mean_motion": 13.83396592,
        "meta_eccentricity": 0.01341455,
        "meta_inclination": 98.7789,
        "meta_ra_of_asc_node": 278.9084,
        "meta_arg_of_pericenter": 192.3786,
        "meta_mean_anomaly": 182.9359,
        "meta_ephemeris_type": 0,
        "meta_classification_type": "U",
        "meta_norad_cat_id": 31026,
        "meta_element_set_no": 999,
        "meta_rev_at_epoch": 67976,
        "meta_bstar": 0.00022773609,
        "meta_mean_motion_dot": 2.28e-06,
        "meta_mean_motion_ddot": 0,
        "tle_line1": "1 31026U 99025BDU 25343.10705704  .00000228  00000+0  22774-3 0  9994",
        "tle_line2": "2 31026  98.7789 278.9084 0134145 192.3786 182.9359 13.83396592679765"
      },
      "geometry": {
        "type": "Point",
        "coordinates": [
          -75.79585120077621,
          -11.8465032918025
        ]
      }
    },
    {
      "type": "Feature",
      "properties": {
        "norad_id": 31028,
        "name": "FENGYUN 1C DEB",
        "group": "fengyun-1c-debris",
        "lat": -1.193749980960475,
        "lon": -81.17940625081488,
        "alt_km": 881.7460020746794,
        "timestamp": "2025-12-12T18:57:44.409974+00:00",
        "meta_object_name": "FENGYUN 1C DEB",
        "meta_object_id": "1999-025BDW",
        "meta_epoch": "2025-12-10T15:06:24.733152",
        "meta_mean_motion": 13.89069073,
        "meta_eccentricity": 0.0164621,
        "meta_inclination": 98.7051,
        "meta_ra_of_asc_node": 276.6179,
        "meta_arg_of_pericenter": 300.1869,
        "meta_mean_anomaly": 58.3072,
        "meta_ephemeris_type": 0,
        "meta_classification_type": "U",
        "meta_norad_cat_id": 31028,
        "meta_element_set_no": 999,
        "meta_rev_at_epoch": 61974,
        "meta_bstar": 0.00051818,
        "meta_mean_motion_dot": 6.59e-06,
        "meta_mean_motion_ddot": 0,
        "tle_line1": "1 31028U 99025BDW 25344.62945293  .00000659  00000+0  51818-3 0  9992",
        "tle_line2": "2 31028  98.7051 276.6179 0164621 300.1869  58.3072 13.89069073619749"
      },
      "geometry": {
        "type": "Point",
        "coordinates": [
          -81.17940625081488,
          -1.193749980960475
        ]
      }
    },
    {
      "type": "Feature",
      "properties": {
        "norad_id": 31029,
        "name": "FENGYUN 1C DEB",
        "group": "fengyun-1c-debris",
        "lat": -72.15668421353183,
        "lon": -87.32984902776656,
        "alt_km": 839.1694477817673,
        "timestamp": "2025-12-12T18:57:44.409984+00:00",
        "meta_object_name": "FENGYUN 1C DEB",
        "meta_object_id": "1999-025BDX",
        "meta_epoch": "2025-12-12T04:56:17.208672",
        "meta_mean_motion": 14.3432103,
        "meta_eccentricity": 0.00901174,
        "meta_inclination": 98.8586,
        "meta_ra_of_asc_node": 243.0925,
        "meta_arg_of_pericenter": 75.3818,
        "meta_mean_anomaly": 75.1787,
        "meta_ephemeris_type": 0,
        "meta_classification_type": "U",
        "meta_norad_cat_id": 31029,
        "meta_element_set_no": 999,
        "meta_rev_at_epoch": 97788,
        "meta_bstar": 0.00049969317,
        "meta_mean_motion_dot": 1.423e-05,
        "meta_mean_motion_ddot": 0,
        "tle_line1": "1 31029U 99025BDX 25346.20575473  .00001423  00000+0  49969-3 0  9992",
        "tle_line2": "2 31029  98.8586 243.0925 0090117  75.3818  75.1787 14.34321030977881"
      },
      "geometry": {
        "type": "Point",
        "coordinates": [
          -87.32984902776656,
          -72.15668421353183
        ]
      }
    },
    {
      "type": "Feature",
      "properties": {
        "norad_id": 31030,
        "name": "FENGYUN 1C DEB",
        "group": "fengyun-1c-debris",
        "lat": 72.02315783041851,
        "lon": -102.8913159412546,
        "alt_km": 787.2438688913408,
        "timestamp": "2025-12-12T18:57:44.409995+00:00",
        "meta_object_name": "FENGYUN 1C DEB",
        "meta_object_id": "1999-025BDY",
        "meta_epoch": "2025-12-08T15:40:05.884032",
        "meta_mean_motion": 14.23648706,
        "meta_eccentricity": 0.0028052,
        "meta_inclination": 98.7668,
        "meta_ra_of_asc_node": 44.589,
        "meta_arg_of_pericenter": 95.8447,
        "meta_mean_anomaly": 57.5385,
        "meta_ephemeris_type": 0,
        "meta_classification_type": "U",
        "meta_norad_cat_id": 31030,
        "meta_element_set_no": 999,
        "meta_rev_at_epoch": 96646,
        "meta_bstar": 0.0015375,
        "meta_mean_motion_dot": 3.477e-05,
        "meta_mean_motion_ddot": 0,
        "tle_line1": "1 31030U 99025BDY 25342.65284588  .00003477  00000+0  15375-2 0  9997",
        "tle_line2": "2 31030  98.7668  44.5890 0028052  95.8447  57.5385 14.23648706966462"
      },
      "geometry": {
        "type": "Point",
        "coordinates": [
          -102.8913159412546,
          72.02315783041851
        ]
      }
    },
    {
      "type": "Feature",
      "properties": {
        "norad_id": 31031,
        "name": "FENGYUN 1C DEB",
        "group": "fengyun-1c-debris",
        "lat": 70.35808377092233,
        "lon": 110.48722987666225,
        "alt_km": 811.3498737384243,
        "timestamp": "2025-12-12T18:57:44.410005+00:00",
        "meta_object_name": "FENGYUN 1C DEB",
        "meta_object_id": "1999-025BDZ",
        "meta_epoch": "2025-12-11T05:59:48.395616",
        "meta_mean_motion": 14.20980827,
        "meta_eccentricity": 0.00276611,
        "meta_inclination": 99.0716,
        "meta_ra_of_asc_node": 262.314,
        "meta_arg_of_pericenter": 190.9459,
        "meta_mean_anomaly": 322.1063,
        "meta_ephemeris_type": 0,
        "meta_classification_type": "U",
        "meta_norad_cat_id": 31031,
        "meta_element_set_no": 999,
        "meta_rev_at_epoch": 96833,
        "meta_bstar": 0.00066122667,
        "meta_mean_motion_dot": 1.392e-05,
        "meta_mean_motion_ddot": 0,
        "tle_line1": "1 31031U 99025BDZ 25345.24986569  .00001392  00000+0  66123-3 0  9996",
        "tle_line2": "2 31031  99.0716 262.3140 0027661 190.9459 322.1063 14.20980827968336"
      },
      "geometry": {
        "type": "Point",
        "coordinates": [
          110.48722987666225,
          70.35808377092233
        ]
      }
    },
    {
      "type": "Feature",
      "properties": {
        "norad_id": 31032,
        "name": "FENGYUN 1C DEB",
        "group": "fengyun-1c-debris",
        "lat": 56.40281646234656,
        "lon": -169.94034044238913,
        "alt_km": 850.8210160063591,
        "timestamp": "2025-12-12T18:57:44.410015+00:00",
        "meta_object_name": "FENGYUN 1C DEB",
        "meta_object_id": "1999-025BEA",
        "meta_epoch": "2025-12-11T18:40:07.400352",
        "meta_mean_motion": 14.02191986,
        "meta_eccentricity": 0.01389983,
        "meta_inclination": 99.4008,
        "meta_ra_of_asc_node": 354.5754,
        "meta_arg_of_pericenter": 198.6506,
        "meta_mean_anomaly": 218.3327,
        "meta_ephemeris_type": 0,
        "meta_classification_type": "U",
        "meta_norad_cat_id": 31032,
        "meta_element_set_no": 999,
        "meta_rev_at_epoch": 94968,
        "meta_bstar": 0.0017611984,
        "meta_mean_motion_dot": 2.887e-05,
        "meta_mean_motion_ddot": 0,
        "tle_line1": "1 31032U 99025BEA 25345.77786343  .00002887  00000+0  17612-2 0  9991",
        "tle_line2": "2 31032  99.4008 354.5754 0138998 198.6506 218.3327 14.02191986949680"
      },
      "geometry": {
        "type": "Point",
        "coordinates": [
          -169.94034044238913,
          56.40281646234656
        ]
      }
    },
    {
      "type": "Feature",
      "properties": {
        "norad_id": 31033,
        "name": "FENGYUN 1C DEB",
        "group": "fengyun-1c-debris",
        "lat": -3.726640261387324,
        "lon": 144.56038930784055,
        "alt_km": 770.4027003331148,
        "timestamp": "2025-12-12T18:57:44.410026+00:00",
        "meta_object_name": "FENGYUN 1C DEB",
        "meta_object_id": "1999-025BEB",
        "meta_epoch": "2025-12-11T22:11:41.030016",
        "meta_mean_motion": 14.27450515,
        "meta_eccentricity": 0.0154099,
        "meta_inclination": 98.4383,
        "meta_ra_of_asc_node": 324.2787,
        "meta_arg_of_pericenter": 112.8448,
        "meta_mean_anomaly": 304.9503,
        "meta_ephemeris_type": 0,
        "meta_classification_type": "U",
        "meta_norad_cat_id": 31033,
        "meta_element_set_no": 999,
        "meta_rev_at_epoch": 97334,
        "meta_bstar": 0.00027425,
        "meta_mean_motion_dot": 7.21e-06,
        "meta_mean_motion_ddot": 0,
        "tle_line1": "1 31033U 99025BEB 25345.92478044  .00000721  00000+0  27425-3 0  9994",
        "tle_line2": "2 31033  98.4383 324.2787 0154099 112.8448 304.9503 14.27450515973340"
      },
      "geometry": {
        "type": "Point",
        "coordinates": [
          144.56038930784055,
          -3.726640261387324
        ]
      }
    }
  ]
}